METEOR-M 2              
1 40069U 14037A   24213.10928812  .00000320  00000+0  16662-3 0  9995
2 40069  98.4386 205.3890 0004815 222.0214 138.0595 14.21006830521865
HIMAWARI-8              
1 40267U 14060A   24212.76124457 -.00000282  00000+0  00000+0 0  9998
2 40267   0.0371 220.7364 0000881 334.5839 168.2523  1.00271523 35879
FENGYUN 2G              
1 40367U 14090A   24212.85935515 -.00000312  00000+0  00000+0 0  9991
2 40367   3.8996  81.0389 0003171 141.7550 135.1193  1.00273217 35117
METEOSAT-11 (MSG-4)     
1 40732U 15034A   24213.16445109  .00000055  00000+0  00000+0 0  9999
2 40732   1.4886  69.9912 0001487 159.3508 148.4587  1.00276543 33137
ELEKTRO-L 2             
1 41105U 15074A   24212.87346365 -.00000127  00000+0  00000+0 0  9990
2 41105   4.9505  78.9484 0001789 151.6397  18.3423  1.00272332 31626
INSAT-3DR               
1 41752U 16054A   24212.39022419 -.00000082  00000+0  00000+0 0  9995
2 41752   0.1154  92.3715 0010957 171.4188 259.1610  1.00271381 28930
HIMAWARI-9              
1 41836U 16064A   24212.61811521 -.00000281  00000+0  00000+0 0  9995
2 41836   0.0495 239.4422 0000790 275.3286 157.2133  1.00270028 28324
GOES 16                 
1 41866U 16071A   24212.86145453 -.00000254  00000+0  00000+0 0  9997
2 41866   0.0876 260.4374 0000248 286.9379 356.5070  1.00271577 28222
FENGYUN 4A              
1 41882U 16077A   24212.90288932 -.00000202  00000+0  00000+0 0  9999
2 41882   0.5655  86.1015 0007870 345.7658 288.5152  1.00265793 28045
CYGFM05                 
1 41884U 16078A   24212.74059751  .00014513  00000+0  51734-3 0  9992
2 41884  34.9596  25.1411 0011617 240.1470 119.8091 15.28005013422744
CYGFM04                 
1 41885U 16078B   24212.83277422  .00013529  00000+0  46936-3 0  9994
2 41885  34.9376   8.1887 0009495 266.0263  93.9367 15.28918880422852
CYGFM02                 
1 41886U 16078C   24212.78285206  .00015330  00000+0  52561-3 0  9991
2 41886  34.9487  10.6668 0012095 252.9233 107.0158 15.29256190422936
CYGFM01                 
1 41887U 16078D   24212.85930417  .00013278  00000+0  47649-3 0  9991
2 41887  34.9492  28.2934 0011377 228.4714 131.5025 15.27802715422694
CYGFM08                 
1 41888U 16078E   24212.71967623  .00014901  00000+0  51915-3 0  9991
2 41888  34.9477  16.9515 0012463 252.4126 107.5228 15.28735941422851
CYGFM07                 
1 41890U 16078G   24213.14479329  .00013874  00000+0  47899-3 0  9997
2 41890  34.9511   5.5751 0009141 266.6626  93.3044 15.29077483423063
CYGFM03                 
1 41891U 16078H   24212.85573962  .00013484  00000+0  46689-3 0  9996
2 41891  34.9496   8.6499 0010066 247.5765 112.3885 15.28977495422851
FENGYUN 3D              
1 43010U 17072A   24213.15313342  .00000233  00000+0  13250-3 0  9990
2 43010  98.9130 168.0720 0001212 162.5035 197.6182 14.19379949347657
NOAA 20 (JPSS-1)        
1 43013U 17073A   24213.18323420  .00000172  00000+0  10232-3 0  9994
2 43013  98.7065 150.3690 0002371  92.3555 267.7893 14.19550608347144
GOES 17                 
1 43226U 18022A   24212.85544998 -.00000097  00000+0  00000+0 0  9998
2 43226   0.0135 298.3526 0001439 243.7580 330.0954  1.00271806 23542
FENGYUN 2H              
1 43491U 18050A   24213.10668451 -.00000135  00000+0  00000+0 0  9996
2 43491   1.2553  87.0277 0001010  82.4381 257.1123  1.00277114 22635
METOP-C                 
1 43689U 18087A   24213.20474600  .00000298  00000+0  15631-3 0  9996
2 43689  98.7211 271.9613 0001327   2.8586 357.2599 14.21477082297375
GEO-KOMPSAT-2A          
1 43823U 18100A   24212.56768642 -.00000349  00000+0  00000+0 0  9990
2 43823   0.0124 119.4461 0002039 346.2998 175.5583  1.00272093 20774
METEOR-M2 2             
1 44387U 19038A   24212.92822106  .00000299  00000+0  15028-3 0  9996
2 44387  98.8297 182.3308 0001404 144.3139 215.8134 14.23908385263615
ARKTIKA-M 1             
1 47719U 21016A   24212.12096189  .00000090  00000+0  00000+0 0  9992
2 47719  63.1356 146.8346 6956730 268.6239  17.8426  2.00602039 25005
FENGYUN 3E              
1 49008U 21062A   24212.97079382  .00000089  00000+0  62557-4 0  9993
2 49008  98.7335 213.6640 0000396 258.7980 101.3152 14.19767948159203
GOES 18                 
1 51850U 22021A   24212.70600639  .00000091  00000+0  00000+0 0  9996
2 51850   0.0056  93.9712 0000236  81.3363 250.6503  1.00270983   302
NOAA 21 (JPSS-2)        
1 54234U 22150A   24212.93707464  .00000207  00000+0  11892-3 0  9991
2 54234  98.7519 150.3200 0001670  60.3942 299.7400 14.19536968 89187
METEOSAT-12 (MTG-I1)    
1 54743U 22170C   24212.94702071 -.00000015  00000+0  00000+0 0  9991
2 54743   0.5632  45.4604 0001795  79.1379 164.8861  1.00272530  6091
TIANMU-1 03             
1 55973U 23039A   24213.14455032  .00011682  00000+0  49273-3 0  9997
2 55973  97.4722   3.5279 0005312  38.3773 321.7841 15.23448819 75542
TIANMU-1 04             
1 55974U 23039B   24213.12560593  .00012028  00000+0  50551-3 0  9991
2 55974  97.4643   3.0301 0006297  32.5261 327.6363 15.23555547 75537
TIANMU-1 05             
1 55975U 23039C   24213.17733064  .00012467  00000+0  52557-3 0  9997
2 55975  97.4692   3.4314 0005247  55.2877 304.8853 15.23449937 75535
TIANMU-1 06             
1 55976U 23039D   24213.15604424  .00012053  00000+0  50500-3 0  9990
2 55976  97.4706   3.5470 0005764  52.7606 307.4156 15.23664797 75530
METEOR-M2 3             
1 57166U 23091A   24213.17422283  .00000077  00000+0  52663-4 0  9990
2 57166  98.7102 267.4476 0004143  19.1526 340.9808 14.23908273 56884
TIANMU-1 07             
1 57399U 23101A   24213.14454912  .00008484  00000+0  42261-3 0  9993
2 57399  97.3609 269.0746 0005884  51.6135 308.5627 15.17797188 57095
TIANMU-1 08             
1 57400U 23101B   24213.17952883  .00008823  00000+0  43906-3 0  9993
2 57400  97.3597 268.9761 0008100  51.3177 308.8780 15.17807462 57096
TIANMU-1 09             
1 57401U 23101C   24213.16273972  .00009362  00000+0  46560-3 0  9996
2 57401  97.3554 268.7758 0008408  47.1878 313.0061 15.17809403 57093
TIANMU-1 10             
1 57402U 23101D   24212.93168374  .00008226  00000+0  40959-3 0  9994
2 57402  97.3633 268.8712 0010518  44.4994 315.7083 15.17786842 57057
FENGYUN 3F              
1 57490U 23111A   24212.92291034  .00000184  00000+0  10770-3 0  9994
2 57490  98.7676 281.6475 0000859  48.9875 311.1375 14.19844748 51474
ARKTIKA-M 2             
1 58584U 23198A   24209.36070071  .00000153  00000+0  00000+0 0  9991
2 58584  63.2535 230.8837 6969666 269.8057  17.2898  2.00605174  4488
TIANMU-1 11             
1 58645U 23205A   24213.16237085  .00007922  00000+0  41903-3 0  9993
2 58645  97.4023 237.1291 0009691 246.5233 113.4981 15.15682675 33177
TIANMU-1 12             
1 58646U 23205B   24213.17656953  .00007611  00000+0  40218-3 0  9997
2 58646  97.4008 237.0689 0008348 236.0471 123.9969 15.15740633 33167
TIANMU-1 13             
1 58647U 23205C   24213.14500772  .00008437  00000+0  44637-3 0  9998
2 58647  97.4040 237.0451 0008676 217.7846 142.2778 15.15660939 33158
TIANMU-1 14             
1 58648U 23205D   24213.19485676  .00007907  00000+0  41847-3 0  9990
2 58648  97.3966 236.9157 0009213 221.7242 138.3289 15.15667613 33169
TIANMU-1 19             
1 58660U 23208A   24212.93661476  .00010092  00000+0  53134-3 0  9993
2 58660  97.4134 324.2605 0008751 205.6433 154.4367 15.15780971 32796
TIANMU-1 20             
1 58661U 23208B   24212.91739523  .00010030  00000+0  51647-3 0  9990
2 58661  97.4064 324.2259 0009262 216.3528 143.7077 15.16564578 32801
TIANMU-1 21             
1 58662U 23208C   24212.88396565  .00009894  00000+0  49599-3 0  9991
2 58662  97.4101 324.5339 0008959 216.2487 143.8141 15.17512733 32812
TIANMU-1 22             
1 58663U 23208D   24212.88798414  .00008530  00000+0  45068-3 0  9994
2 58663  97.4120 324.2783 0004382 222.8778 137.2114 15.15728348 32799
TIANMU-1 15             
1 58700U 24004A   24213.19381890  .00008757  00000+0  46339-3 0  9995
2 58700  97.4632  33.5028 0008580 258.0698 101.9573 15.15648438 31435
TIANMU-1 16             
1 58701U 24004B   24213.17567296  .00008676  00000+0  45862-3 0  9990
2 58701  97.4561  33.3252 0008462 264.6697  95.3570 15.15687182 31437
TIANMU-1 17             
1 58702U 24004C   24213.16133938  .00008049  00000+0  42625-3 0  9990
2 58702  97.4605  33.4637 0006295 257.5501 102.5027 15.15660514 31429
TIANMU-1 18             
1 58703U 24004D   24213.20989389  .00007663  00000+0  40584-3 0  9998
2 58703  97.4618  33.5938 0005682 244.7255 115.3389 15.15677506 31435
INSAT-3DS               
1 58990U 24033A   24213.10738069 -.00000163  00000+0  00000+0 0  9998
2 58990   0.0710 263.7503 0001613 233.2373 292.9693  1.00271672  1941
METEOR-M2 4             
1 59051U 24039A   24213.17484764  .00000104  00000+0  66408-4 0  9993
2 59051  98.6003 173.9919 0007205   7.2834 352.8447 14.22243501 21746
GOES 19                 
1 60133U 24119A   24212.64396094 -.00000188  00000+0  00000+0 0  9998
2 60133   0.0821 248.7053 0003309 200.4864   1.8268  1.00272049    71
ALOS-4 (DAICHI-4)       
1 60182U 24123A   24212.88801956  .00004472  00000+0  60499-3 0  9992
2 60182  97.9213 308.9246 0001624 111.2974 248.8411 14.79494754  4400
STARLINK-11168 [DTC]    
1 60183U 24124A   24213.18053510  .00059065  00000+0  36065-3 0  9993
2 60183  53.1576 173.4512 0001103  66.8190 293.2947 15.76836680  5602
STARLINK-11187 [DTC]    
1 60184U 24124B   24213.17565632  .00073480  00000+0  44816-3 0  9996
2 60184  53.1576 173.4187 0001752  44.9622 315.1541 15.76774287  5583
STARLINK-11180 [DTC]    
1 60185U 24124C   24213.17077091  .00124152  00000+0  74665-3 0  9992
2 60185  53.1575 173.3861 0001633  76.9117 283.2086 15.76875632  5599
